[{"OBJECT_NAME":"GRBBETA","OBJECT_ID":"2024-128C","EPOCH":"2026-03-09T16:58:19.607232","MEAN_MOTION":15.05794613,"ECCENTRICITY":0.0051339,"INCLINATION":61.9904,"RA_OF_ASC_NODE":205.0764,"ARG_OF_PERICENTER":114.1677,"MEAN_ANOMALY":246.4795,"EPHEMERIS_TYPE":0,"CLASSIFICATION_TYPE":"U","NORAD_CAT_ID":60237,"ELEMENT_SET_NO":999,"REV_AT_EPOCH":9128,"BSTAR":0.00046403869,"MEAN_MOTION_DOT":6.748e-5,"MEAN_MOTION_DDOT":0},{"OBJECT_NAME":"TORO","OBJECT_ID":"2024-149BQ","EPOCH":"2026-03-09T19:04:49.617408","MEAN_MOTION":14.96013579,"ECCENTRICITY":0.00010195,"INCLINATION":97.6844,"RA_OF_ASC_NODE":145.3205,"ARG_OF_PERICENTER":86.2634,"MEAN_ANOMALY":273.8704,"EPHEMERIS_TYPE":0,"CLASSIFICATION_TYPE":"U","NORAD_CAT_ID":60530,"ELEMENT_SET_NO":999,"REV_AT_EPOCH":8509,"BSTAR":0.00024799107,"MEAN_MOTION_DOT":2.725e-5,"MEAN_MOTION_DDOT":0}]
