GRBBETA                 
1 60237U 24128C   26068.70717138  .00006748  00000+0  46404-3 0  9996
2 60237  61.9904 205.0764 0051339 114.1677 246.4795 15.05794613 91289
TORO                    
1 60530U 24149BQ  26068.79501870  .00002725  00000+0  24799-3 0  9992
2 60530  97.6844 145.3205 0001020  86.2634 273.8704 14.96013579 85094
